IRIDIUM 39              
1 25042U 97069D   25191.53559410  .00000364  00000+0  90017-4 0  9997
2 25042  86.3923 201.1248 0016117 223.7012 136.2917 14.49238444452347
IRIDIUM 38              
1 25043U 97069E   25191.61706293  .00000252  00000+0  76517-4 0  9995
2 25043  86.3949 223.2999 0003522  59.8234 300.3313 14.38130986449322
IRIDIUM 42              
1 25077U 97077A   25191.65204019  .00000247  00000+0  77815-4 0  9990
2 25077  86.3951 229.4832 0002842  79.1913 280.9604 14.36365144444560
IRIDIUM 44              
1 25078U 97077B   25191.54316679  .00000233  00000+0  67398-4 0  9995
2 25078  86.3961 211.3965 0001546  35.7183 324.4119 14.40254544447065
IRIDIUM 45              
1 25104U 97082A   25191.64903768  .00008216  00000+0  29122-3 0  9994
2 25104  86.3562  36.4913 0113255 243.1459 115.8172 15.22911737455619
IRIDIUM 24              
1 25105U 97082B   25191.69437077  .00000338  00000+0  96637-4 0  9998
2 25105  86.3883  70.3287 0011789  11.2721 348.8741 14.42115978446605
IRIDIUM 51              
1 25262U 98018A   25191.61396128  .00021742  00000+0  46247-3 0  9998
2 25262  86.3805  44.2201 0085314 158.5318 201.9551 15.40919860450638
IRIDIUM 57              
1 25273U 98019B   25191.37770179  .00000227  00000+0  71621-4 0  9996
2 25273  86.3987 135.5494 0002298  83.5917 276.5541 14.35905110428112
